STARLINK-32494          
1 62053U 24216X   26183.50559548  .00013802  00000+0  51039-3 0  9996
2 62053  42.9992 334.9658 0001549 258.6195 101.4483 15.27562874 91352
STARLINK-32408          
1 62054U 24216Y   26183.10396059  .00016169  00000+0  59548-3 0  9991
2 62054  43.0025 330.1840 0001137  19.4169 340.6726 15.27598984 91381
STARLINK-32571          
1 62055U 24216Z   26183.12822373  .00020786  00000+0  76211-3 0  9993
2 62055  43.0035 329.5052 0001418 265.5648  94.5042 15.27607089 91482
STARLINK-11465 [DTC]    
1 62057U 24217A   26183.46827113  .00161264  00000+0  13069-2 0  9998
2 62057  53.1562 225.2319 0000884 177.4820 182.6202 15.69771220 93202
STARLINK-11426 [DTC]    
1 62058U 24217B   26183.59070835  .00187770  00000+0  15180-2 0  9990
2 62058  53.1566 224.5716 0000942  87.2817 272.8309 15.69740226 93166
STARLINK-11454 [DTC]    
1 62059U 24217C   26183.37036668  .00178721  00000+0  14499-2 0  9991
2 62059  53.1565 226.0543 0001373  24.4818 335.6264 15.69686589 93185
STARLINK-11473 [DTC]    
1 62060U 24217D   26183.57119078  .00072565  00000+0  59866-3 0  9999
2 62060  53.1565 225.1774 0001412  96.2612 263.8567 15.69706728 93216
STARLINK-11429 [DTC]    
1 62061U 24217E   26183.49280838  .00122412  00000+0  10009-2 0  9996
2 62061  53.1550 225.3937 0001158  69.4444 290.6698 15.69699135 93201
STARLINK-11470 [DTC]    
1 62062U 24217F   26183.55156974  .00139388  00000+0  11359-2 0  9996
2 62062  53.1565 225.0458 0000929 142.1268 217.9816 15.69714569 93158
STARLINK-11427 [DTC]    
1 62063U 24217G   26183.50261463  .00121670  00000+0  99473-3 0  9991
2 62063  53.1567 225.4588 0001147  79.9487 280.1660 15.69703611 93203
STARLINK-11456 [DTC]    
1 62064U 24217H   26183.53685186  .00128268  00000+0  10473-2 0  9999
2 62064  53.1571 224.9513 0001595  57.6478 302.4694 15.69708718 93210
STARLINK-11474 [DTC]    
1 62065U 24217J   26183.52213484  .00123398  00000+0  10071-2 0  9990
2 62065  53.1561 224.8561 0001622  54.3442 305.7727 15.69738328 93211
STARLINK-11463 [DTC]    
1 62066U 24217K   26183.61032725  .00149782  00000+0  12168-2 0  9992
2 62066  53.1563 224.7050 0001208  35.0968 325.0129 15.69752653 93224
STARLINK-11472 [DTC]    
1 62067U 24217L   26183.51732923  .00129512  00000+0  10579-2 0  9992
2 62067  53.1568 225.5543 0001168  93.3630 266.7522 15.69695732 93136
STARLINK-11467 [DTC]    
1 62068U 24217M   26183.60542266  .00143495  00000+0  11672-2 0  9993
2 62068  53.1565 224.6667 0001129  89.3309 270.7838 15.69744834 93229
STARLINK-11460 [DTC]    
1 62069U 24217N   26183.57609097  .00101476  00000+0  83189-3 0  9992
2 62069  53.1567 225.2050 0001057 108.9578 251.1554 15.69720184 93153
STARLINK-32604          
1 62070U 24217P   26183.61473638  .00008930  00000+0  27539-3 0  9997
2 62070  53.1599  18.8962 0001104  81.7947 278.3181 15.34368277 91034
STARLINK-32553          
1 62071U 24217Q   26183.55591077  .00017346  00000+0  52356-3 0  9995
2 62071  53.1587  19.2429 0000614  52.4704 307.6355 15.34384691 91077
STARLINK-32603          
1 62072U 24217R   26183.56854412  .00021210  00000+0  63711-3 0  9994
2 62072  53.1585  19.3189 0001140 100.2999 259.8132 15.34400275 91071
STARLINK-32444          
1 62073U 24217S   26182.95495069  .00028897  00000+0  86234-3 0  9999
2 62073  53.1604  21.9083 0000927  92.3126 267.7982 15.34427620 90939
STARLINK-32619          
1 62074U 24217T   26183.54328734  .00019761  00000+0  59452-3 0  9992
2 62074  53.1598  19.1633 0003134 299.8192  60.2499 15.34394025 91024
STARLINK-32580          
1 62075U 24217U   26183.54451736  .00000346  00000+0  23841-4 0  9995
2 62075  53.1606   7.8034 0002542  84.5329 275.5962 15.30181656 91180
STARLINK-32617          
1 62076U 24217V   26183.58335648  .00016433  00000+0  49699-3 0  9995
2 62076  53.1601   6.9817 0001067  76.0268 102.5953 15.34363678  5874
SUPERVIEW NEO-2 03      
1 62079U 24218B   26182.66895601 -.00000032  00000+0  16416-5 0  9999
2 62079  97.4399 189.7974 0001614  88.6577 271.4843 15.19721704 88647
SUPERVIEW NEO-2 04      
1 62080U 24218C   26182.66895496  .00000056  00000+0  57624-5 0  9994
2 62080  97.4400 189.8026 0001324 113.9783 246.1591 15.19721820 88648
KINEIS-5C               
1 62081U 24219A   26183.62319917  .00000755  00000+0  12711-3 0  9994
2 62081  97.9055 342.0476 0003139 216.0551 144.0445 14.72301337 86025
KINEIS-5D               
1 62082U 24219B   26183.58326637  .00001141  00000+0  18752-3 0  9998
2 62082  97.9167 342.0559 0004234 208.2979 151.7999 14.72474964 86022
KINEIS-5E               
1 62083U 24219C   26183.66740887  .00000718  00000+0  12123-3 0  9990
2 62083  97.9011 342.1918 0005745 204.5681 155.5254 14.72286812 86049
KINEIS-5A               
1 62084U 24219D   26182.96576387  .00001330  00000+0  21795-3 0  9991
2 62084  97.8953 341.7998 0002969 254.6100 105.4780 14.72327989 85941
KINEIS-5B               
1 62085U 24219E   26183.61497282  .00001260  00000+0  18031-3 0  9992
2 62085  98.0078 347.3606 0001550 172.4633 187.6601 14.78363768 86287
