OBJECT_NAME,OBJECT_ID,EPOCH,MEAN_MOTION,ECCENTRICITY,INCLINATION,RA_OF_ASC_NODE,ARG_OF_PERICENTER,MEAN_ANOMALY,EPHEMERIS_TYPE,CLASSIFICATION_TYPE,NORAD_CAT_ID,ELEMENT_SET_NO,REV_AT_EPOCH,BSTAR,MEAN_MOTION_DOT,MEAN_MOTION_DDOT
STARLINK-32494,2024-216X,2026-07-02T12:08:03.449472,15.27562874,.00015498,42.9992,334.9658,258.6195,101.4483,0,U,62053,999,9135,.51038867E-3,.13802E-3,0
STARLINK-32408,2024-216Y,2026-07-02T02:29:42.194976,15.27598984,.00011374,43.0025,330.1840,19.4169,340.6726,0,U,62054,999,9138,.59547639E-3,.16169E-3,0
STARLINK-32571,2024-216Z,2026-07-02T03:04:38.530272,15.27607089,.0001418,43.0035,329.5052,265.5648,94.5042,0,U,62055,999,9148,.76210545E-3,.20786E-3,0
STARLINK-11465 [DTC],2024-217A,2026-07-02T11:14:18.625632,15.69771220,.00008841,53.1562,225.2319,177.4820,182.6202,0,U,62057,999,9320,.13069053E-2,.161264E-2,0
STARLINK-11426 [DTC],2024-217B,2026-07-02T14:10:37.201440,15.69740226,.00009425,53.1566,224.5716,87.2817,272.8309,0,U,62058,999,9316,.15179961E-2,.18777E-2,0
STARLINK-11454 [DTC],2024-217C,2026-07-02T08:53:19.681152,15.69686589,.00013735,53.1565,226.0543,24.4818,335.6264,0,U,62059,999,9318,.14498687E-2,.178721E-2,0
STARLINK-11473 [DTC],2024-217D,2026-07-02T13:42:30.883392,15.69706728,.00014128,53.1565,225.1774,96.2612,263.8567,0,U,62060,999,9321,.59866066E-3,.72565E-3,0
STARLINK-11429 [DTC],2024-217E,2026-07-02T11:49:38.644032,15.69699135,.00011585,53.1550,225.3937,69.4444,290.6698,0,U,62061,999,9320,.10008546E-2,.122412E-2,0
STARLINK-11470 [DTC],2024-217F,2026-07-02T13:14:15.625536,15.69714569,.00009294,53.1565,225.0458,142.1268,217.9816,0,U,62062,999,9315,.1135926E-2,.139388E-2,0
STARLINK-11427 [DTC],2024-217G,2026-07-02T12:03:45.904032,15.69703611,.00011475,53.1567,225.4588,79.9487,280.1660,0,U,62063,999,9320,.99472646E-3,.12167E-2,0
STARLINK-11456 [DTC],2024-217H,2026-07-02T12:53:04.000704,15.69708718,.00015958,53.1571,224.9513,57.6478,302.4694,0,U,62064,999,9321,.10473368E-2,.128268E-2,0
STARLINK-11474 [DTC],2024-217J,2026-07-02T12:31:52.450176,15.69738328,.00016223,53.1561,224.8561,54.3442,305.7727,0,U,62065,999,9321,.10071143E-2,.123398E-2,0
STARLINK-11463 [DTC],2024-217K,2026-07-02T14:38:52.274400,15.69752653,.00012086,53.1563,224.7050,35.0968,325.0129,0,U,62066,999,9322,.12168161E-2,.149782E-2,0
STARLINK-11472 [DTC],2024-217L,2026-07-02T12:24:57.245472,15.69695732,.00011689,53.1568,225.5543,93.3630,266.7522,0,U,62067,999,9313,.10578664E-2,.129512E-2,0
STARLINK-11467 [DTC],2024-217M,2026-07-02T14:31:48.517824,15.69744834,.00011299,53.1565,224.6667,89.3309,270.7838,0,U,62068,999,9322,.11672084E-2,.143495E-2,0
STARLINK-11460 [DTC],2024-217N,2026-07-02T13:49:34.259808,15.69720184,.00010572,53.1567,225.2050,108.9578,251.1554,0,U,62069,999,9315,.83188502E-3,.101476E-2,0
STARLINK-32604,2024-217P,2026-07-02T14:45:13.223232,15.34368277,.00011044,53.1599,18.8962,81.7947,278.3181,0,U,62070,999,9103,.27538526E-3,.893E-4,0
STARLINK-32553,2024-217Q,2026-07-02T13:20:30.690528,15.34384691,.00006143,53.1587,19.2429,52.4704,307.6355,0,U,62071,999,9107,.52355597E-3,.17346E-3,0
STARLINK-32603,2024-217R,2026-07-02T13:38:42.211968,15.34400275,.00011404,53.1585,19.3189,100.2999,259.8132,0,U,62072,999,9107,.63710561E-3,.2121E-3,0
STARLINK-32444,2024-217S,2026-07-01T22:55:07.739616,15.34427620,.00009274,53.1604,21.9083,92.3126,267.7982,0,U,62073,999,9093,.86233976E-3,.28897E-3,0
STARLINK-32619,2024-217T,2026-07-02T13:02:20.026176,15.34394025,.00031343,53.1598,19.1633,299.8192,60.2499,0,U,62074,999,9102,.59452236E-3,.19761E-3,0
STARLINK-32580,2024-217U,2026-07-02T13:04:06.299904,15.30181656,.00025422,53.1606,7.8034,84.5329,275.5962,0,U,62075,999,9118,.2384147E-4,.346E-5,0
STARLINK-32617,2024-217V,2026-07-02T14:00:01.999872,15.34363678,.00010671,53.1601,6.9817,76.0268,102.5953,0,U,62076,999,587,.49699381E-3,.16433E-3,0
SUPERVIEW NEO-2 03,2024-218B,2026-07-01T16:03:17.799264,15.19721704,.00016143,97.4399,189.7974,88.6577,271.4843,0,U,62079,999,8864,.1641625E-5,-.32E-6,0
SUPERVIEW NEO-2 04,2024-218C,2026-07-01T16:03:17.708544,15.19721820,.00013249,97.4400,189.8026,113.9783,246.1591,0,U,62080,999,8864,.5762442E-5,.56E-6,0
KINEIS-5C,2024-219A,2026-07-02T14:57:24.408288,14.72301337,.00031397,97.9055,342.0476,216.0551,144.0445,0,U,62081,999,8602,.12711231E-3,.755E-5,0
KINEIS-5D,2024-219B,2026-07-02T13:59:54.214368,14.72474964,.00042343,97.9167,342.0559,208.2979,151.7999,0,U,62082,999,8602,.18751943E-3,.1141E-4,0
KINEIS-5E,2024-219C,2026-07-02T16:01:04.126368,14.72286812,.0005745,97.9011,342.1918,204.5681,155.5254,0,U,62083,999,8604,.12122778E-3,.718E-5,0
KINEIS-5A,2024-219D,2026-07-01T23:10:41.998368,14.72327989,.00029698,97.8953,341.7998,254.6100,105.4780,0,U,62084,999,8594,.21794737E-3,.133E-4,0
KINEIS-5B,2024-219E,2026-07-02T14:45:33.651648,14.78363768,.000155,98.0078,347.3606,172.4633,187.6601,0,U,62085,999,8628,.18030576E-3,.126E-4,0
